NESS                    
1 58020U 23155E   26068.76452457  .00019469  00000+0  74047-3 0  9996
2 58020  97.5941 152.6141 0006891 179.8776 180.2465 15.26794015133307
STARLINK-31976          
1 59887U 24100C   26068.51025519 -.00004740  00000+0 -16274-3 0  9993
2 59887  43.0015 130.3389 0001770 234.8036 125.2650 15.27599527101083
